BEIDOU-3 M22            
1 44793U 19078A   26191.17164683 -.00000064  00000+0  00000+0 0  9996
2 44793  53.9138 299.0194 0005855  49.9813 310.0922  1.86227486 45076
BEIDOU-3 M21            
1 44794U 19078B   26189.16367219 -.00000063  00000+0  00000+0 0  9992
2 44794  53.8889 299.0507 0003790  48.5315 311.5256  1.86228045 45040
BEIDOU-3 M19            
1 44864U 19090A   26190.26753905 -.00000047  00000+0  00000+0 0  9990
2 44864  56.5775  62.0617 0016984 297.5653 280.0700  1.86231620 44644
BEIDOU-3 M20            
1 44865U 19090B   26191.16060929 -.00000046  00000+0  00000+0 0  9997
2 44865  56.5796  62.0669 0014879 312.5032 233.4737  1.86231480 44641
BEIDOU-3 G2             
1 45344U 20017A   26191.15500763 -.00000132  00000+0  00000+0 0  9991
2 45344   2.9077  47.6544 0002190  57.6305 318.6618  1.00269930 23496
BEIDOU-3 G3             
1 45807U 20040A   26191.30363164 -.00000345  00000+0  00000+0 0  9996
2 45807   2.5003  67.4792 0001852 329.9731 110.5737  1.00266611 22305
BEIDOU-3 G4             
1 56564U 23066A   26191.30943833 -.00000270  00000+0  00000+0 0  9993
2 56564   0.4648 337.4315 0004855 187.7070  14.5230  1.00274299 11627
BEIDOU-3 M28            
1 58654U 23207A   26190.85154454 -.00000048  00000+0  00000+0 0  9997
2 58654  55.7728  61.5386 0002574   2.0527 358.0099  1.86229668 17265
BEIDOU-3 M26            
1 58655U 23207B   26190.64904029 -.00000049  00000+0  00000+0 0  9997
2 58655  55.7748  61.5320 0002179 324.2830  35.7636  1.86229622 17247
BEIDOU-3 M25            
1 61186U 24168B   26190.47823551 -.00000067  00000+0  00000+0 0  9998
2 61186  54.4524 301.4683 0003287 292.5284  70.4431  1.86229901 12207
BEIDOU-3 M27            
1 61187U 24168C   26190.26802481 -.00000067  00000+0  00000+0 0  9995
2 61187  54.4479 301.4584 0001007  49.0108 308.0590  1.86229980  9664
