[
    {
        "OBJECT_NAME": "BEIDOU-3 M22",
        "OBJECT_ID": "2019-078A",
        "EPOCH": "2026-07-10T04:07:10.286112",
        "MEAN_MOTION": 1.86227486,
        "ECCENTRICITY": 0.00058553,
        "INCLINATION": 53.9138,
        "RA_OF_ASC_NODE": 299.0194,
        "ARG_OF_PERICENTER": 49.9813,
        "MEAN_ANOMALY": 310.0922,
        "EPHEMERIS_TYPE": 0,
        "CLASSIFICATION_TYPE": "U",
        "NORAD_CAT_ID": 44793,
        "ELEMENT_SET_NO": 999,
        "REV_AT_EPOCH": 4507,
        "BSTAR": 0,
        "MEAN_MOTION_DOT": -6.4e-07,
        "MEAN_MOTION_DDOT": 0
    },
    {
        "OBJECT_NAME": "BEIDOU-3 M21",
        "OBJECT_ID": "2019-078B",
        "EPOCH": "2026-07-08T03:55:41.277216",
        "MEAN_MOTION": 1.86228045,
        "ECCENTRICITY": 0.00037906,
        "INCLINATION": 53.8889,
        "RA_OF_ASC_NODE": 299.0507,
        "ARG_OF_PERICENTER": 48.5315,
        "MEAN_ANOMALY": 311.5256,
        "EPHEMERIS_TYPE": 0,
        "CLASSIFICATION_TYPE": "U",
        "NORAD_CAT_ID": 44794,
        "ELEMENT_SET_NO": 999,
        "REV_AT_EPOCH": 4504,
        "BSTAR": 0,
        "MEAN_MOTION_DOT": -6.3e-07,
        "MEAN_MOTION_DDOT": 0
    },
    {
        "OBJECT_NAME": "BEIDOU-3 M19",
        "OBJECT_ID": "2019-090A",
        "EPOCH": "2026-07-09T06:25:15.373920",
        "MEAN_MOTION": 1.8623162,
        "ECCENTRICITY": 0.00169841,
        "INCLINATION": 56.5775,
        "RA_OF_ASC_NODE": 62.0617,
        "ARG_OF_PERICENTER": 297.5653,
        "MEAN_ANOMALY": 280.07,
        "EPHEMERIS_TYPE": 0,
        "CLASSIFICATION_TYPE": "U",
        "NORAD_CAT_ID": 44864,
        "ELEMENT_SET_NO": 999,
        "REV_AT_EPOCH": 4464,
        "BSTAR": 0,
        "MEAN_MOTION_DOT": -4.7e-07,
        "MEAN_MOTION_DDOT": 0
    },
    {
        "OBJECT_NAME": "BEIDOU-3 M20",
        "OBJECT_ID": "2019-090B",
        "EPOCH": "2026-07-10T03:51:16.642656",
        "MEAN_MOTION": 1.8623148,
        "ECCENTRICITY": 0.00148795,
        "INCLINATION": 56.5796,
        "RA_OF_ASC_NODE": 62.0669,
        "ARG_OF_PERICENTER": 312.5032,
        "MEAN_ANOMALY": 233.4737,
        "EPHEMERIS_TYPE": 0,
        "CLASSIFICATION_TYPE": "U",
        "NORAD_CAT_ID": 44865,
        "ELEMENT_SET_NO": 999,
        "REV_AT_EPOCH": 4464,
        "BSTAR": 0,
        "MEAN_MOTION_DOT": -4.6e-07,
        "MEAN_MOTION_DDOT": 0
    },
    {
        "OBJECT_NAME": "BEIDOU-3 G2",
        "OBJECT_ID": "2020-017A",
        "EPOCH": "2026-07-10T03:43:12.659232",
        "MEAN_MOTION": 1.0026993,
        "ECCENTRICITY": 0.00021908,
        "INCLINATION": 2.9077,
        "RA_OF_ASC_NODE": 47.6544,
        "ARG_OF_PERICENTER": 57.6305,
        "MEAN_ANOMALY": 318.6618,
        "EPHEMERIS_TYPE": 0,
        "CLASSIFICATION_TYPE": "U",
        "NORAD_CAT_ID": 45344,
        "ELEMENT_SET_NO": 999,
        "REV_AT_EPOCH": 2349,
        "BSTAR": 0,
        "MEAN_MOTION_DOT": -1.32e-06,
        "MEAN_MOTION_DDOT": 0
    },
    {
        "OBJECT_NAME": "BEIDOU-3 G3",
        "OBJECT_ID": "2020-040A",
        "EPOCH": "2026-07-10T07:17:13.773696",
        "MEAN_MOTION": 1.00266611,
        "ECCENTRICITY": 0.00018525,
        "INCLINATION": 2.5003,
        "RA_OF_ASC_NODE": 67.4792,
        "ARG_OF_PERICENTER": 329.9731,
        "MEAN_ANOMALY": 110.5737,
        "EPHEMERIS_TYPE": 0,
        "CLASSIFICATION_TYPE": "U",
        "NORAD_CAT_ID": 45807,
        "ELEMENT_SET_NO": 999,
        "REV_AT_EPOCH": 2230,
        "BSTAR": 0,
        "MEAN_MOTION_DOT": -3.45e-06,
        "MEAN_MOTION_DDOT": 0
    },
    {
        "OBJECT_NAME": "BEIDOU-3 G4",
        "OBJECT_ID": "2023-066A",
        "EPOCH": "2026-07-10T07:25:35.471712",
        "MEAN_MOTION": 1.00274299,
        "ECCENTRICITY": 0.00048559,
        "INCLINATION": 0.4648,
        "RA_OF_ASC_NODE": 337.4315,
        "ARG_OF_PERICENTER": 187.707,
        "MEAN_ANOMALY": 14.523,
        "EPHEMERIS_TYPE": 0,
        "CLASSIFICATION_TYPE": "U",
        "NORAD_CAT_ID": 56564,
        "ELEMENT_SET_NO": 999,
        "REV_AT_EPOCH": 1162,
        "BSTAR": 0,
        "MEAN_MOTION_DOT": -2.7e-06,
        "MEAN_MOTION_DDOT": 0
    },
    {
        "OBJECT_NAME": "BEIDOU-3 M28",
        "OBJECT_ID": "2023-207A",
        "EPOCH": "2026-07-09T20:26:13.448256",
        "MEAN_MOTION": 1.86229668,
        "ECCENTRICITY": 0.00025748,
        "INCLINATION": 55.7728,
        "RA_OF_ASC_NODE": 61.5386,
        "ARG_OF_PERICENTER": 2.0527,
        "MEAN_ANOMALY": 358.0099,
        "EPHEMERIS_TYPE": 0,
        "CLASSIFICATION_TYPE": "U",
        "NORAD_CAT_ID": 58654,
        "ELEMENT_SET_NO": 999,
        "REV_AT_EPOCH": 1726,
        "BSTAR": 0,
        "MEAN_MOTION_DOT": -4.8e-07,
        "MEAN_MOTION_DDOT": 0
    },
    {
        "OBJECT_NAME": "BEIDOU-3 M26",
        "OBJECT_ID": "2023-207B",
        "EPOCH": "2026-07-09T15:34:37.081056",
        "MEAN_MOTION": 1.86229622,
        "ECCENTRICITY": 0.00021798,
        "INCLINATION": 55.7748,
        "RA_OF_ASC_NODE": 61.532,
        "ARG_OF_PERICENTER": 324.283,
        "MEAN_ANOMALY": 35.7636,
        "EPHEMERIS_TYPE": 0,
        "CLASSIFICATION_TYPE": "U",
        "NORAD_CAT_ID": 58655,
        "ELEMENT_SET_NO": 999,
        "REV_AT_EPOCH": 1724,
        "BSTAR": 0,
        "MEAN_MOTION_DOT": -4.9e-07,
        "MEAN_MOTION_DDOT": 0
    },
    {
        "OBJECT_NAME": "BEIDOU-3 M25",
        "OBJECT_ID": "2024-168B",
        "EPOCH": "2026-07-09T11:28:39.548064",
        "MEAN_MOTION": 1.86229901,
        "ECCENTRICITY": 0.00032874,
        "INCLINATION": 54.4524,
        "RA_OF_ASC_NODE": 301.4683,
        "ARG_OF_PERICENTER": 292.5284,
        "MEAN_ANOMALY": 70.4431,
        "EPHEMERIS_TYPE": 0,
        "CLASSIFICATION_TYPE": "U",
        "NORAD_CAT_ID": 61186,
        "ELEMENT_SET_NO": 999,
        "REV_AT_EPOCH": 1220,
        "BSTAR": 0,
        "MEAN_MOTION_DOT": -6.7e-07,
        "MEAN_MOTION_DDOT": 0
    },
    {
        "OBJECT_NAME": "BEIDOU-3 M27",
        "OBJECT_ID": "2024-168C",
        "EPOCH": "2026-07-09T06:25:57.343584",
        "MEAN_MOTION": 1.8622998,
        "ECCENTRICITY": 0.00010074,
        "INCLINATION": 54.4479,
        "RA_OF_ASC_NODE": 301.4584,
        "ARG_OF_PERICENTER": 49.0108,
        "MEAN_ANOMALY": 308.059,
        "EPHEMERIS_TYPE": 0,
        "CLASSIFICATION_TYPE": "U",
        "NORAD_CAT_ID": 61187,
        "ELEMENT_SET_NO": 999,
        "REV_AT_EPOCH": 966,
        "BSTAR": 0,
        "MEAN_MOTION_DOT": -6.7e-07,
        "MEAN_MOTION_DDOT": 0
    }
]